{"type": "FeatureCollection", "features": [ {"type": "Feature", "properties": {"norad_id": 43262, "name": "GAOFEN-1 04", "group": "resource", "lat": 74.69346274901892, "lon": 5.793087089729815, "alt_km": 632.6330959326224, "timestamp": "2025-12-05T05:43:14.772021+00:00", "meta": {"OBJECT_NAME": "GAOFEN-1 04", "OBJECT_ID": "2018-031D", "EPOCH": "2025-12-04T17:59:16.266048", "MEAN_MOTION": 14.76424365, "ECCENTRICITY": 0.0001302, "INCLINATION": 98.082, "RA_OF_ASC_NODE": 36.5814, "ARG_OF_PERICENTER": 61.7666, "MEAN_ANOMALY": 298.3675, "EPHEMERIS_TYPE": 0, "CLASSIFICATION_TYPE": "U", "NORAD_CAT_ID": 43262, "ELEMENT_SET_NO": 999, "REV_AT_EPOCH": 41399, "BSTAR": 0.00027442, "MEAN_MOTION_DOT": 1.856e-05, "MEAN_MOTION_DDOT": 0}, "tle": {"line1": "1 43262U 18031D   25338.74949382  .00001856  00000+0  27442-3 0  9998", "line2": "2 43262  98.0820  36.5814 0001302  61.7666 298.3675 14.76424365413999"}}, "geometry": {"type": "Point", "coordinates": [5.793087089729815, 74.69346274901892]}}, {"type": "Feature", "properties": {"norad_id": 43437, "name": "SENTINEL-3B", "group": "resource", "lat": 35.8891574423901, "lon": -129.1619685848946, "alt_km": 799.2706085716782, "timestamp": "2025-12-05T05:43:14.772036+00:00", "meta": {"OBJECT_NAME": "SENTINEL-3B", "OBJECT_ID": "2018-039A", "EPOCH": "2025-12-04T15:35:07.443744", "MEAN_MOTION": 14.26738162, "ECCENTRICITY": 0.0001476, "INCLINATION": 98.6277, "RA_OF_ASC_NODE": 43.9502, "ARG_OF_PERICENTER": 110.5365, "MEAN_ANOMALY": 249.5973, "EPHEMERIS_TYPE": 0, "CLASSIFICATION_TYPE": "U", "NORAD_CAT_ID": 43437, "ELEMENT_SET_NO": 999, "REV_AT_EPOCH": 39638, "BSTAR": 0.00015035, "MEAN_MOTION_DOT": 3.2e-06, "MEAN_MOTION_DDOT": 0}, "tle": {"line1": "1 43437U 18039A   25338.64939171  .00000320  00000+0  15035-3 0  9994", "line2": "2 43437  98.6277  43.9502 0001476 110.5365 249.5973 14.26738162396382"}}, "geometry": {"type": "Point", "coordinates": [-129.1619685848946, 35.8891574423901]}}, {"type": "Feature", "properties": {"norad_id": 43461, "name": "GAOFEN-5 01", "group": "resource", "lat": -54.32806297549782, "lon": -46.00019163795095, "alt_km": 698.3745073042264, "timestamp": "2025-12-05T05:43:14.772047+00:00", "meta": {"OBJECT_NAME": "GAOFEN-5 01", "OBJECT_ID": "2018-043A", "EPOCH": "2025-12-04T11:53:06.565632", "MEAN_MOTION": 14.60395735, "ECCENTRICITY": 0.0001499, "INCLINATION": 98.4313, "RA_OF_ASC_NODE": 301.3191, "ARG_OF_PERICENTER": 7.6077, "MEAN_ANOMALY": 352.5145, "EPHEMERIS_TYPE": 0, "CLASSIFICATION_TYPE": "U", "NORAD_CAT_ID": 43461, "ELEMENT_SET_NO": 999, "REV_AT_EPOCH": 40327, "BSTAR": 0.00021847, "MEAN_MOTION_DOT": 1.009e-05, "MEAN_MOTION_DDOT": 0}, "tle": {"line1": "1 43461U 18043A   25338.49521488  .00001009  00000+0  21847-3 0  9990", "line2": "2 43461  98.4313 301.3191 0001499   7.6077 352.5145 14.60395735403270"}}, "geometry": {"type": "Point", "coordinates": [-46.00019163795095, -54.32806297549782]}}, {"type": "Feature", "properties": {"norad_id": 43484, "name": "GAOFEN-6", "group": "resource", "lat": -44.809041407583905, "lon": -144.07365661732425, "alt_km": 654.1084409111072, "timestamp": "2025-12-05T05:43:14.772057+00:00", "meta": {"OBJECT_NAME": "GAOFEN-6", "OBJECT_ID": "2018-048A", "EPOCH": "2025-12-04T18:56:46.891968", "MEAN_MOTION": 14.76543198, "ECCENTRICITY": 0.0013312, "INCLINATION": 97.8042, "RA_OF_ASC_NODE": 43.3227, "ARG_OF_PERICENTER": 87.0633, "MEAN_ANOMALY": 273.21, "EPHEMERIS_TYPE": 0, "CLASSIFICATION_TYPE": "U", "NORAD_CAT_ID": 43484, "ELEMENT_SET_NO": 999, "REV_AT_EPOCH": 40470, "BSTAR": 0.00011209, "MEAN_MOTION_DOT": 7.33e-06, "MEAN_MOTION_DDOT": 0}, "tle": {"line1": "1 43484U 18048A   25338.78943162  .00000733  00000+0  11209-3 0  9993", "line2": "2 43484  97.8042  43.3227 0013312  87.0633 273.2100 14.76543198404701"}}, "geometry": {"type": "Point", "coordinates": [-144.07365661732425, -44.809041407583905]}}, {"type": "Feature", "properties": {"norad_id": 43585, "name": "GAOFEN-11 01", "group": "resource", "lat": -56.374012215467936, "lon": -148.6545075538949, "alt_km": 428.1525640223881, "timestamp": "2025-12-05T05:43:14.772067+00:00", "meta": {"OBJECT_NAME": "GAOFEN-11 01", "OBJECT_ID": "2018-063A", "EPOCH": "2025-12-04T17:50:48.433632", "MEAN_MOTION": 15.48885726, "ECCENTRICITY": 0.0004814, "INCLINATION": 97.1576, "RA_OF_ASC_NODE": 41.747, "ARG_OF_PERICENTER": 348.8228, "MEAN_ANOMALY": 11.2916, "EPHEMERIS_TYPE": 0, "CLASSIFICATION_TYPE": "U", "NORAD_CAT_ID": 43585, "ELEMENT_SET_NO": 999, "REV_AT_EPOCH": 41018, "BSTAR": 0.00047926, "MEAN_MOTION_DOT": 0.00025797, "MEAN_MOTION_DDOT": 0}, "tle": {"line1": "1 43585U 18063A   25338.74361613  .00025797  00000+0  47926-3 0  9995", "line2": "2 43585  97.1576  41.7470 0004814 348.8228  11.2916 15.48885726410185"}}, "geometry": {"type": "Point", "coordinates": [-148.6545075538949, -56.374012215467936]}}, {"type": "Feature", "properties": {"norad_id": 43613, "name": "ICESAT-2", "group": "resource", "lat": 3.02518553789986, "lon": 58.818264788845035, "alt_km": 483.33852717884747, "timestamp": "2025-12-05T05:43:14.772077+00:00", "meta": {"OBJECT_NAME": "ICESAT-2", "OBJECT_ID": "2018-070A", "EPOCH": "2025-12-04T16:22:39.575136", "MEAN_MOTION": 15.28289414, "ECCENTRICITY": 5.07e-05, "INCLINATION": 92.0056, "RA_OF_ASC_NODE": 238.5621, "ARG_OF_PERICENTER": 145.7146, "MEAN_ANOMALY": 214.4136, "EPHEMERIS_TYPE": 0, "CLASSIFICATION_TYPE": "U", "NORAD_CAT_ID": 43613, "ELEMENT_SET_NO": 999, "REV_AT_EPOCH": 40275, "BSTAR": 0.00099762, "MEAN_MOTION_DOT": 0.00027537, "MEAN_MOTION_DDOT": 0}, "tle": {"line1": "1 43613U 18070A   25338.68240249  .00027537  00000+0  99762-3 0  9998", "line2": "2 43613  92.0056 238.5621 0000507 145.7146 214.4136 15.28289414402751"}}, "geometry": {"type": "Point", "coordinates": [58.818264788845035, 3.02518553789986]}}, {"type": "Feature", "properties": {"norad_id": 43719, "name": "HYSIS", "group": "resource", "lat": -24.28445078003785, "lon": -141.3904226869277, "alt_km": 640.1692001165457, "timestamp": "2025-12-05T05:43:14.772087+00:00", "meta": {"OBJECT_NAME": "HYSIS", "OBJECT_ID": "2018-096A", "EPOCH": "2025-12-04T17:25:48.955584", "MEAN_MOTION": 14.78609268, "ECCENTRICITY": 0.0001628, "INCLINATION": 98.0108, "RA_OF_ASC_NODE": 41.743, "ARG_OF_PERICENTER": 64.9298, "MEAN_ANOMALY": 295.2081, "EPHEMERIS_TYPE": 0, "CLASSIFICATION_TYPE": "U", "NORAD_CAT_ID": 43719, "ELEMENT_SET_NO": 999, "REV_AT_EPOCH": 37868, "BSTAR": 3.555e-05, "MEAN_MOTION_DOT": 2.08e-06, "MEAN_MOTION_DDOT": 0}, "tle": {"line1": "1 43719U 18096A   25338.72626106  .00000208  00000+0  35550-4 0  9990", "line2": "2 43719  98.0108  41.7430 0001628  64.9298 295.2081 14.78609268378686"}}, "geometry": {"type": "Point", "coordinates": [-141.3904226869277, -24.28445078003785]}}, {"type": "Feature", "properties": {"norad_id": 43783, "name": "KAZSTSAT", "group": "resource", "lat": -61.6832375056415, "lon": -179.31919148453287, "alt_km": 578.2075247905341, "timestamp": "2025-12-05T05:43:14.772097+00:00", "meta": {"OBJECT_NAME": "KAZSTSAT", "OBJECT_ID": "2018-099AB", "EPOCH": "2025-12-04T15:49:40.780128", "MEAN_MOTION": 14.99310817, "ECCENTRICITY": 0.0006413, "INCLINATION": 97.4553, "RA_OF_ASC_NODE": 14.1921, "ARG_OF_PERICENTER": 1.1963, "MEAN_ANOMALY": 358.9275, "EPHEMERIS_TYPE": 0, "CLASSIFICATION_TYPE": "U", "NORAD_CAT_ID": 43783, "ELEMENT_SET_NO": 999, "REV_AT_EPOCH": 38215, "BSTAR": 0.00031062, "MEAN_MOTION_DOT": 3.74e-05, "MEAN_MOTION_DDOT": 0}, "tle": {"line1": "1 43783U 18099AB  25338.65949977  .00003740  00000+0  31062-3 0  9997", "line2": "2 43783  97.4553  14.1921 0006413   1.1963 358.9275 14.99310817382153"}}, "geometry": {"type": "Point", "coordinates": [-179.31919148453287, -61.6832375056415]}}, {"type": "Feature", "properties": {"norad_id": 43831, "name": "SAUDISAT 5A", "group": "resource", "lat": -51.99916534685926, "lon": 49.0674625396791, "alt_km": 503.3471158900402, "timestamp": "2025-12-05T05:43:14.772107+00:00", "meta": {"OBJECT_NAME": "SAUDISAT 5A", "OBJECT_ID": "2018-102A", "EPOCH": "2025-12-04T18:55:53.497632", "MEAN_MOTION": 15.25505731, "ECCENTRICITY": 0.0011787, "INCLINATION": 97.3369, "RA_OF_ASC_NODE": 39.1344, "ARG_OF_PERICENTER": 100.4681, "MEAN_ANOMALY": 259.7886, "EPHEMERIS_TYPE": 0, "CLASSIFICATION_TYPE": "U", "NORAD_CAT_ID": 43831, "ELEMENT_SET_NO": 999, "REV_AT_EPOCH": 38601, "BSTAR": 0.00053371, "MEAN_MOTION_DOT": 0.00013488, "MEAN_MOTION_DDOT": 0}, "tle": {"line1": "1 43831U 18102A   25338.78881363  .00013488  00000+0  53371-3 0  9991", "line2": "2 43831  97.3369  39.1344 0011787 100.4681 259.7886 15.25505731386013"}}, "geometry": {"type": "Point", "coordinates": [49.0674625396791, -51.99916534685926]}}, {"type": "Feature", "properties": {"norad_id": 43833, "name": "SAUDISAT 5B", "group": "resource", "lat": -9.951906933843674, "lon": 43.59748076213623, "alt_km": 495.592612454906, "timestamp": "2025-12-05T05:43:14.772120+00:00", "meta": {"OBJECT_NAME": "SAUDISAT 5B", "OBJECT_ID": "2018-102C", "EPOCH": "2025-12-04T18:44:50.883936", "MEAN_MOTION": 15.25863408, "ECCENTRICITY": 0.0012517, "INCLINATION": 97.3464, "RA_OF_ASC_NODE": 41.8511, "ARG_OF_PERICENTER": 103.1758, "MEAN_ANOMALY": 257.0878, "EPHEMERIS_TYPE": 0, "CLASSIFICATION_TYPE": "U", "NORAD_CAT_ID": 43833, "ELEMENT_SET_NO": 999, "REV_AT_EPOCH": 38612, "BSTAR": 0.00052105, "MEAN_MOTION_DOT": 0.00013311, "MEAN_MOTION_DDOT": 0}, "tle": {"line1": "1 43833U 18102C   25338.78114449  .00013311  00000+0  52105-3 0  9996", "line2": "2 43833  97.3464  41.8511 0012517 103.1758 257.0878 15.25863408386126"}}, "geometry": {"type": "Point", "coordinates": [43.59748076213623, -9.951906933843674]}}]}